ONEWEB-0032             
1 45141U 20008L   23059.53827291 -.00000450  00000+0 -13263-2 0  9998
2 45141  87.8817 275.6129 0001390  87.3251 272.8035 13.10370126150532
ONEWEB-0032             
1 45141U 20008L   23059.84370423 -.00000449  00000+0 -13222-2 0  9995
2 45141  87.8818 275.5521 0001391  87.2637 272.8650 13.10369606150574
ONEWEB-0032             
1 45141U 20008L   23060.83635474 -.00000204  00000+0 -62157-3 0  9997
2 45141  87.8815 275.3543 0001398  88.4283 271.7004 13.10369925150700
ONEWEB-0032             
1 45141U 20008L   23060.83635474 -.00000204  00000+0 -62157-3 0  9997
2 45141  87.8815 275.3543 0001398  88.4283 271.7004 13.10369925151565
ONEWEB-0032             
1 45141U 20008L   23061.82900712 -.00000024  00000+0 -10529-3 0  9993
2 45141  87.8814 275.1567 0001385  88.8556 271.2730 13.10369087150830
ONEWEB-0032             
1 45141U 20008L   23062.13443778  .00000088  00000+0  21478-3 0  9995
2 45141  87.8814 275.0959 0001391  89.4637 270.6649 13.10370014150876
ONEWEB-0032             
1 45141U 20008L   23062.13443778  .00000088  00000+0  21478-3 0  9995
2 45141  87.8814 275.0959 0001391  89.4637 270.6649 13.10370014151732
ONEWEB-0032             
1 45141U 20008L   23062.82165756  .00000279  00000+0  76380-3 0  9992
2 45141  87.8814 274.9589 0001375  89.9751 270.1534 13.10370356150964
